{"water": {"type": "FeatureCollection", "features": [{"geometry": {"type": "Polygon", "coordinates": [[[1.40625, 51.99146], [1.42396, 52.00049], [1.43455, 52.00854], [1.4399, 52.02021], [1.44618, 52.0284], [1.45521, 52.03374], [1.4629, 52.04846], [1.47077, 52.05249], [1.4754, 52.05249], [1.46762, 52.04831], [1.4624, 52.0407], [1.47381, 52.05026], [1.47873, 52.05249], [1.75781, 52.05249], [1.75781, 51.83578], [1.40625, 51.83578], [1.40625, 51.99146]]]}, "type": "Feature", "properties": {"source": "openstreetmapdata.com", "kind": "ocean", "id": 21557, "name": "", "area": 39785033728}}, {"geometry": {"type": "Polygon", "coordinates": [[[1.40625, 51.83606], [1.4067, 51.83606], [1.4067, 51.83578], [1.40625, 51.83578], [1.40625, 51.83606]]]}, "type": "Feature", "properties": {"source": "openstreetmapdata.com", "kind": "ocean", "id": 21210, "name": "", "area": 1356125824}}, {"geometry": {"type": "Polygon", "coordinates": [[[1.40625, 51.89033], [1.4067, 51.89033], [1.4067, 51.83578], [1.40625, 51.83578], [1.40625, 51.89033]]]}, "type": "Feature", "properties": {"source": "openstreetmapdata.com", "kind": "ocean", "id": 21480, "name": "", "area": 97692264}}, {"geometry": {"type": "Polygon", "coordinates": [[[1.40625, 51.94454], [1.4067, 51.94454], [1.4067, 51.88978], [1.40625, 51.88978], [1.40625, 51.94454]]]}, "type": "Feature", "properties": {"source": "openstreetmapdata.com", "kind": "ocean", "id": 21552, "name": "", "area": 95928304}}, {"geometry": {"type": "Polygon", "coordinates": [[[1.40625, 51.99139], [1.4067, 51.99156], [1.4067, 51.94399], [1.40625, 51.94399], [1.40625, 51.99139]]]}, "type": "Feature", "properties": {"source": "openstreetmapdata.com", "kind": "ocean", "id": 21553, "name": "", "area": 48012428}}, {"geometry": {"type": "LineString", "coordinates": [[1.47333, 52.05249], [1.46689, 52.04898], [1.46052, 52.04047]]}, "type": "Feature", "properties": {"source": "openstreetmap.org", "kind": "river", "name": "River Ore", "id": 334367448}}, {"geometry": {"type": "MultiLineString", "coordinates": [[[1.4067, 51.99156], [1.42396, 52.00049], [1.43455, 52.00854], [1.4399, 52.02021], [1.44618, 52.0284], [1.45521, 52.03374], [1.4629, 52.04846], [1.47077, 52.05249]], [[1.4754, 52.05249], [1.46762, 52.04831], [1.4624, 52.0407], [1.47381, 52.05026], [1.47873, 52.05249]]]}, "type": "Feature", "properties": {"source": "openstreetmapdata.com", "kind": "ocean", "area": 39785033728, "id": 21557, "boundary": "yes"}}, {"geometry": {"type": "LineString", "coordinates": [[1.40625, 51.99139], [1.4067, 51.99156]]}, "type": "Feature", "properties": {"source": "openstreetmapdata.com", "kind": "ocean", "area": 48012428, "id": 21553, "boundary": "yes"}}]}, "buildings": {"type": "FeatureCollection", "features": []}, "landuse_labels": {"type": "FeatureCollection", "features": []}, "places": {"type": "FeatureCollection", "features": []}, "transit": {"type": "FeatureCollection", "features": []}, "pois": {"type": "FeatureCollection", "features": []}, "boundaries": {"type": "FeatureCollection", "features": [{"geometry": {"type": "LineString", "coordinates": [[1.40625, 51.99109], [1.4121, 51.99345], [1.43122, 52.00463], [1.44435, 52.02597], [1.45417, 52.03286], [1.45911, 52.04032], [1.46476, 52.04107], [1.47298, 52.04956], [1.47913, 52.05249]]}, "type": "Feature", "properties": {"admin_level": "6", "kind": "county", "name": "Suffolk", "name:ru": "\u0421\u0443\u0444\u0444\u043e\u043b\u043a", "id": -28595, "osm_relation": true}}, {"geometry": {"type": "LineString", "coordinates": [[1.61795, 51.83578], [1.6315, 51.846], [1.67503, 51.873], [1.70747, 51.9], [1.75781, 51.91858]]}, "type": "Feature", "properties": {"name:kg": "Royaume-Uni", "name:ty": "Parat\u0101ne", "name:cy": "Deyrnas Unedig", "name:ko": "\uc601\uad6d", "name:cv": "\u0410\u0441\u043b\u0103 \u0411\u0440\u0438\u0442\u0430\u043d\u0438", "name:cu": "\u0412\u0454\u043b\u0438\u043a\u0430 \u0411\u0440\u0438\u0442\u0430\u043d\u0457\ua657", "name:kl": "Tuluit Nunaat", "name:cs": "Spojen\u00e9 kr\u00e1lovstv\u00ed", "name:tt": "\u0411\u04e9\u0435\u043a\u0431\u0440\u0438\u0442\u0430\u043d\u0438\u044f", "name:co": "Regnu Unitu", "name:kv": "\u042b\u0434\u0436\u044b\u0434 \u0411\u0440\u0438\u0442\u0430\u043d\u0438\u044f", "name:ku": "Keyaniya Yekb\u00fby\u00ee", "name:tl": "Nagkakaisang Kaharian", "name:ce": "\u0419\u043e\u043a\u043a\u0445\u0430 \u0411\u0440\u0438\u0442\u0430\u043d\u0438", "name:ta": "\u0b90\u0b95\u0bcd\u0b95\u0bbf\u0baf \u0b87\u0bb0\u0bbe\u0b9a\u0bcd\u0b9a\u0bbf\u0baf\u0bae\u0bcd", "name:tg": "\u041f\u043e\u0434\u0448\u043e\u04b3\u0438\u0438 \u041c\u0443\u0442\u0442\u0430\u04b3\u0438\u0434\u0430", "name:ca": "Regne Unit", "name:te": "\u0c2f\u0c41\u0c28\u0c48\u0c1f\u0c46\u0c21\u0c4d \u0c15\u0c3f\u0c02\u0c17\u0c4d\u200c\u0c21\u0c2e\u0c4d", "name:bat-smg": "Jongt\u0117n\u0117 Karal\u012bst\u0117", "name:ka": "\u10d2\u10d0\u10d4\u10e0\u10d7\u10d8\u10d0\u10dc\u10d4\u10d1\u10e3\u10da\u10d8 \u10e1\u10d0\u10db\u10d4\u10e4\u10dd", "name:frp": "Roy\u00f4mo-Uni", "name:kab": "Legliz", "name:da": "Storbritannien", "name:de": "Vereinigtes K\u00f6nigreich Gro\u00dfbritannien und Nordirland", "name:dz": "\u0f61\u0f74\u0f0b\u0f53\u0f60\u0f72\u0f0b\u0f4a\u0f7a\u0f4a\u0f0b\u0f40\u0f72\u0f44\u0f0b\u0f4c\u0f58", "name:tr": "Birle\u015fik Krall\u0131k", "name:tet": "Reinu Naklibur", "name:kn": "\u0caf\u0cc1\u0ca8\u0cc8\u0c9f\u0cc6\u0ca1\u0ccd \u0c95\u0cbf\u0c82\u0c97\u0ccd\u200c\u0ca1\u0c82", "name:dv": "\u0794\u07aa\u0782\u07a6\u0787\u07a8\u0793\u07ac\u0791\u07b0 \u0786\u07a8\u0782\u07b0\u078e\u07b0\u0791\u07a6\u0789\u07b0", "name:km": "\u179a\u17b6\u1787\u17b6\u178e\u17b6\u1785\u1780\u17d2\u179a\u179a\u17bd\u1798", "name:lv": "Apvienot\u0101 Karaliste", "name:lt": "Jungtin\u0117 Karalyst\u0117", "name:uz": "Birlashgan Qirollik", "name:kk": "\u04b0\u043b\u044b\u0431\u0440\u0438\u0442\u0430\u043d\u0438\u044f", "name:chr": "\u13a1\u13b5\u13cf\u13af", "name:als": "Vereinigtes K\u00f6nigreich", "name:ur": "\u0628\u0631\u0637\u0627\u0646\u06cc\u06c1", "name:lb": "Groussbritannien an Nordirland", "name:la": "Britanniarum Regnum", "name:uk": "\u0412\u0435\u043b\u0438\u043a\u0430 \u0411\u0440\u0438\u0442\u0430\u043d\u0456\u044f", "name:nds": "Vereenigt K\u00f6nigriek vun Grootbritannien un Noordirland", "name:li": "Vereineg Keuninkriek", "name:ln": "Ing\u025bl\u025b\u0301t\u025bl\u025b", "name:el": "\u0397\u03bd\u03c9\u03bc\u03ad\u03bd\u03bf \u0392\u03b1\u03c3\u03af\u03bb\u03b5\u03b9\u03bf", "name:eo": "Unui\u011dinta Re\u011dlando", "name": "United Kingdom", "name:th": "\u0e2a\u0e2b\u0e23\u0e32\u0e0a\u0e2d\u0e32\u0e13\u0e32\u0e08\u0e31\u0e01\u0e23", "name:lij": "Regno Un\u00efo", "name:ja": "\u30a4\u30ae\u30ea\u30b9", "name:eu": "Erresuma Batua", "name:et": "Suurbritannia", "name:es": "Reino Unido", "name:ia": "Regno Unite", "name:rm": "Reginavel Un\u00ec", "name:lez": "\u0427I\u0435\u0445\u0438\u0431\u0440\u0438\u0442\u0430\u043d\u0438\u044f", "name:az": "B\u00f6y\u00fck Britaniya", "name:ie": "Reyatu Unit", "name:id": "Britania Raya", "name:ig": "Obodo\u00e9z\u00e8 N\u00e0 Of\u00fa", "name:gan": "\u82f1\u570b", "name:nah": "Tlacetil\u012blli Hu\u0113yitlahtohc\u0101y\u014dtl", "name:ar": "\u0627\u0644\u0645\u0645\u0644\u0643\u0629 \u0627\u0644\u0645\u062a\u062d\u062f\u0629", "name:io": "Unionita Rejio", "name:eml": "R\u00e9gn Un\u00ee", "name:nap": "Gran Vretagna", "name:ckb": "\u0634\u0627\u0646\u0634\u06cc\u0646\u06cc \u06cc\u06d5\u06a9\u06af\u0631\u062a\u0648\u0648", "name:am": "\u12e9\u1293\u12ed\u1275\u12f5 \u12aa\u1295\u130d\u12f0\u121d", "name:it": "Regno Unito", "name:an": "Reino Unito", "name:ru": "\u0412\u0435\u043b\u0438\u043a\u043e\u0431\u0440\u0438\u0442\u0430\u043d\u0438\u044f", "name:ast": "Reinu Xun\u00edu", "name:cbk-zam": "Reinos Unidos de Gran Britania y Norte Irelandia", "name:af": "Verenigde Koninkryk", "name:zu": "Umbuso Ohlangeneyo", "name:nrm": "Rouoyaume Unni", "name:za": "Yinghgoz", "name:zh-yue": "\u82f1\u570b", "name:zh": "\u82f1\u570b", "name:so": "Midowga boqortooyada Britan", "name:sl": "Zdru\u017eeno kraljestvo Velike Britanije in Severne Irske", "name:sk": "Spojen\u00e9 kr\u00e1\u013eovstvo", "name:war": "Reino Unido", "name:si": "\u0d91\u0d9a\u0dca\u0dc3\u0dad\u0dca \u0dbb\u0dcf\u0da2\u0db0\u0dcf\u0db1\u0dd2\u0dba", "name:sh": "Ujedinjeno Kraljevstvo", "name:qu": "Hukllachasqa Qhapaq Suyu", "name:zh-traditional": "\u82f1\u570b", "name:se": "Ovttastuvvan gonagasriika", "name:sc": "Rennu Auniadu", "name:br": "Rouantelezh-Unanet", "name:arc": "\u0721\u0720\u071f\u0718\u072c\u0710 \u0721\u071a\u071d\u0715\u072c\u0710", "name:bn": "\u09af\u09c1\u0995\u09cd\u09a4\u09b0\u09be\u099c\u09cd\u09af", "name:bo": "\u0f51\u0f56\u0fb1\u0f72\u0f53\u0f0b\u0f47\u0f72\u0f0b\u0f58\u0f49\u0f58\u0f0b\u0f60\u0f56\u0fb2\u0f7a\u0f63\u0f0d", "name:ug": "\u0628\u06c8\u064a\u06c8\u0643 \u0628\u06d0\u0631\u0649\u062a\u0627\u0646\u0649\u064a\u06d5", "name:bjn": "Britania Raya", "name:arz": "\u0627\u0644\u0645\u0645\u0644\u0643\u0647 \u0627\u0644\u0645\u062a\u062d\u062f\u0647", "name:ilo": "Nagkaykaysa a Pagarian", "name:sw": "Ufalme wa Muungano", "name:be": "\u0412\u044f\u043b\u0456\u043a\u0430\u0431\u0440\u044b\u0442\u0430\u043d\u0456\u044f", "name:su": "Britania", "name:bs": "Ujedinjeno Kraljevstvo Velike Britanije i Sjeverne Irske", "name:kw": "Ruwvaneth Unys", "name:sr": "\u0423\u0458\u0435\u0434\u0438\u045a\u0435\u043d\u043e \u041a\u0440\u0430\u0459\u0435\u0432\u0441\u0442\u0432\u043e", "name:sq": "Mbret\u00ebria e Bashkuar e Britanis\u00eb dhe Irland\u00ebs s\u00eb Veriut", "name:frr": "Feriind Kiningrik", "name:mrj": "\u041a\u043e\u0433\u043e \u0411\u0440\u0438\u0442\u0430\u043d\u0438", "name:hsb": "Zjedno\u0107ene kralestwo", "name:kbd": "\u0411\u0440\u0438\u0442\u0430\u043d\u0438\u044d\u0448\u0445\u0443\u044d", "name:bcl": "Reyno Unido", "name:jv": "Britania Raya", "name:xmf": "\u10d2\u10dd\u10d0\u10e0\u10d7\u10dd\u10d8\u10d0\u10dc\u10d0\u10e4\u10d8\u10da\u10d8 \u10dd\u10db\u10d0\u10e4\u10d4", "name:sah": "\u0425\u043e\u043b\u0431\u043eh\u0443\u043a\u0442\u0430\u0430\u0445 \u0425\u043e\u0440\u0443\u043e\u043b\u043b\u0443\u043a", "name:mzn": "\u0628\u0631\u06cc\u062a\u0627\u0646\u06cc\u0627", "name:sa": "\u0938\u0902\u092f\u0941\u0915\u094d\u0924 \u0905\u0927\u093f\u0930\u093e\u091c\u094d\u092f", "name:gag": "B\u00fc\u00fck Britaniya", "name:pt": "Reino Unido", "name:ab": "\u0411\u0440\u0438\u0442\u0430\u043d\u0438\u0430 \u0414\u0443", "name:ps": "\u0628\u0631\u064a\u062a\u0627\u0646\u064a\u0627", "name:tpi": "Yunaitet Kingdom", "name:oc": "Reialme Unit", "name:mwl": "Reino Ounido", "name:ro": "Regatul Unit al Marii Britanii \u0219i al Irlandei de Nord", "name:diq": "Qraliya Yewbiyayiye", "name:zh-min-nan": "Li\u00e2n-ha\u030dp \u00d4ng-kok", "name:os": "\u0421\u0442\u044b\u0440 \u0411\u0440\u0438\u0442\u0430\u043d\u0438", "name:or": "\u0b2f\u0b41\u0b15\u0b4d\u0b24\u0b30\u0b3e\u0b1c\u0b4d\u0b5f", "name:pl": "Wielka Brytania", "name:pms": "Regn Un\u00ec", "name:bg": "\u041e\u0431\u0435\u0434\u0438\u043d\u0435\u043d\u043e \u043a\u0440\u0430\u043b\u0441\u0442\u0432\u043e \u0412\u0435\u043b\u0438\u043a\u043e\u0431\u0440\u0438\u0442\u0430\u043d\u0438\u044f \u0438 \u0421\u0435\u0432\u0435\u0440\u043d\u0430 \u0418\u0440\u043b\u0430\u043d\u0434\u0438\u044f", "name:pih": "Yunitid Kingdum", "name:mr": "\u092f\u0941\u0928\u093e\u092f\u091f\u0947\u0921 \u0915\u093f\u0902\u0917\u094d\u0921\u092e", "name:krc": "\u0423\u043b\u043b\u0443 \u0411\u0440\u0438\u0442\u0430\u043d\u0438\u044f", "name:cdo": "\u012cng-gu\u00f3k", "name:mhr": "\u0423\u0448\u044b\u043c\u043e \u041a\u043e\u0440\u043e\u043b\u0435\u0432\u0441\u0442\u0432\u0435", "osm_relation": true, "name:rue": "\u0412\u0435\u043b\u0438\u043a\u0430 \u0411\u0440\u0456\u0442\u0430\u043d\u0456\u044f", "name:pa": "\u0a38\u0a70\u0a2f\u0a41\u0a15\u0a24 \u0a2c\u0a3e\u0a26\u0a38\u0a3c\u0a3e\u0a39\u0a40", "name:crh": "B\u00fcy\u00fck Britaniya", "name:nov": "Unionati Regia", "name:ba": "\u0411\u04e9\u0439\u04e9\u043a \u0411\u0440\u0438\u0442\u0430\u043d\u0438\u044f", "name:csb": "Wi\u00f4lg\u00f4 Britanij\u00f4", "name:sco": "Unitit Kinrick", "name:scn": "Regnu Unitu", "name:pap": "Reino Uni", "name:koi": "\u042b\u0434\u0436\u044b\u0442 \u0411\u0440\u0438\u0442\u043c\u0443", "name:sv": "Storbritannien", "name:he": "\u05d4\u05de\u05de\u05dc\u05db\u05d4 \u05d4\u05de\u05d0\u05d5\u05d7\u05d3\u05ea", "name:roa-rup": "Britania Mari", "name:ha": "Birtaniya", "name:bpy": "\u09a4\u09bf\u09b2\u09aa\u09be\u09b0\u09be\u099c\u09cd\u09af", "name:zh-classical": "\u82f1\u570b", "name:pam": "Pisanmetung a Ka-arian", "name:hy": "\u0544\u056b\u0561\u0581\u0575\u0561\u056c \u0539\u0561\u0563\u0561\u057e\u0578\u0580\u0578\u0582\u0569\u0575\u0578\u0582\u0576", "name:jbo": "gugdegubu", "name:ht": "Way\u00f2m Ini", "name:hu": "Egyes\u00fclt Kir\u00e1lys\u00e1g", "name:hr": "Ujedinjeno Kraljevstvo Velike Britanije i Sjeverne Irske", "name:vec": "Regno Un\u00eco", "name:pag": "Reino Unido", "name:pnt": "\u0397\u03bd\u03c9\u03bc\u03ad\u03bd\u03bf \u0392\u03b1\u03c3\u03af\u03bb\u03b5\u03b9\u03bf", "kind": "country", "name:rmy": "Phandlo Thagaripen la Bare Britaniyako thai le Nordutne Irlandesko", "name:szl": "Wjelgo Bryta\u0144ijo", "name:srn": "Ingriskondre", "name:ltg": "Lelbrytaneja", "name:is": "Bretland", "name:lmo": "Regn \u00dcn\u00ec", "name:bxr": "\u041d\u044d\u0433\u0434\u0441\u044d\u043d \u0412\u0430\u043d\u0442 \u0423\u043b\u0441", "name:bar": "Vaeinigts Kinireich", "name:pnb": "\u0628\u0631\u0637\u0627\u0646\u06cc\u06c1", "name:yi": "\u05e4\u05d0\u05e8\u05d0\u05d9\u05d9\u05e0\u05d9\u05d2\u05d8\u05e2 \u05e7\u05e2\u05e0\u05d9\u05d2\u05e8\u05d9\u05d9\u05da", "name:be-tarask": "\u0412\u044f\u043b\u0456\u043a\u0430\u0431\u0440\u044b\u0442\u0430\u043d\u0456\u044f", "name:nl": "Verenigd Koninkrijk", "name:yo": "Il\u1eb9\u0300\u1ecdba A\u1e63\u1ecd\u0300kan", "name:mt": "Renju Unit", "name:fiu-vro": "\u00dctiskuningriik", "admin_level": "2", "name:my": "\u101a\u1030\u1014\u102d\u102f\u1000\u103a\u1010\u1000\u103a\u1000\u1004\u103a\u1038\u1012\u1019\u103a\u1038\u1014\u102d\u102f\u1004\u103a\u1004\u1036", "name:stq": "Fereeniged K\u00f6\u00f6nichriek fon Groot-Britannien un Noudirlound", "name:lad": "Reyno Unido", "name:mg": "Fanjakana Mitambatra", "name:vi": "V\u01b0\u01a1ng qu\u1ed1c Anh", "name:ml": "\u0d2f\u0d41\u0d23\u0d48\u0d31\u0d4d\u0d31\u0d21\u0d4d \u0d15\u0d3f\u0d19\u0d4d\u0d21\u0d02", "name:nds-nl": "Verienigd Keuninkriek", "name:mn": "\u0418\u0445 \u0411\u0440\u0438\u0442\u0430\u043d\u0438", "name:mi": "K\u012bngitanga Kotahi", "id": -62149, "name:mk": "\u041e\u0431\u0435\u0434\u0438\u043d\u0435\u0442\u043e \u041a\u0440\u0430\u043b\u0441\u0442\u0432\u043e", "name:vo": "Reg\u00e4n Pebal\u00f6l", "name:zh-simplified": "\u82f1\u56fd", "name:fa": "\u0628\u0631\u06cc\u062a\u0627\u0646\u06cc\u0627", "name:rw": "Ubwongereza", "name:haw": "Aupuni M\u014d\u02bb\u012b Hui P\u016b \u02bbia", "name:ksh": "Jru\u00dfbritannie", "name:fi": "Yhdistynyt kuningaskunta", "name:ext": "R\u00e9inu Uniu", "name:hi": "\u092f\u0942\u0928\u093e\u0907\u091f\u0947\u0921 \u0915\u093f\u0902\u0917\u0921\u092e", "name:fo": "St\u00f3ra Bretland", "name:tzl": "Regip\u00e4ts Viensi\u00e7at", "name:fr": "Royaume-Uni", "name:fy": "Feriene Keninkryk", "name:hak": "Y\u00een-koet", "name:roa-tara": "Regne Aun\u00ecte", "name:bi": "Unaeted Kingdom", "name:ky": "\u0423\u043b\u0443\u0443 \u0411\u0440\u0438\u0442\u0430\u043d\u0438\u044f \u0436\u0430\u043d\u0430 \u0422\u04af\u043d\u0434\u04af\u043a \u0418\u0440\u043b\u0430\u043d\u0434\u0438\u044f", "name:nn": "Storbritannia", "name:no": "Storbritannia", "name:na": "Ingerand", "name:zea": "Vere\u00eanigd Konienkriek", "name:xal": "\u0418\u043a \u0411\u0440\u0438\u0442\u0438\u0448\u0438\u043d \u0431\u043e\u043b\u043d \u0410\u0440 \u0413\u04d9\u04d9\u043b\u0433\u04af\u0434\u0438\u043d \u041d\u0438\u0438\u0446\u04d9\u0442\u04d9 \u041d\u0443\u0442\u0433", "name:ne": "\u0938\u0902\u092f\u0941\u0915\u094d\u0924 \u0905\u0927\u093f\u0930\u093e\u091c\u094d\u092f", "name:vep": "Sur' Britanii", "name:pcd": "Ro\u00e9y\u00f4me-Uni", "name:wo": "Nguur-Yu-Bennoo", "name:nv": "T\u00f3ta\u02bc Din\u00e9\u02bci\u02bc Bik\u00e9yah", "name:ang": "Ge\u0101ned Cyner\u012bce", "name:dsb": "Wjelika Britaniska", "name:ga": "An R\u00edocht Aontaithe", "name:gd": "An R\u00ecoghachd Aonaichte", "name:vls": "Ver\u00eanigd Keunienkryk", "name:fur": "Ream Un\u00eet", "name:gn": "Tavet\u00e3 Joaju", "name:gl": "Reino Unido", "maritime_boundary": "yes", "name:gv": "Reeriaght Unnaneysit", "name:gu": "\u0aaf\u0ac1\u0aa8\u0abe\u0a87\u0a9f\u0ac7\u0aa1 \u0a95\u0abf\u0a82\u0a97\u0aa1\u0aae", "name:udm": "\u0412\u0435\u043b\u0438\u043a\u043e\u0431\u0440\u0438\u0442\u0430\u043d\u0438\u044f", "name:ceb": "Hiniusang Gingharian", "name:wuu": "\u82f1\u56fd"}}, {"geometry": {"type": "LineString", "coordinates": [[1.61795, 51.83578], [1.6315, 51.846], [1.67503, 51.873], [1.70747, 51.9], [1.75781, 51.91858]]}, "type": "Feature", "properties": {"name:pt": "Inglaterra", "name:cy": "Lloegr", "name:tr": "\u0130ngiltere", "name:it": "Inghilterra", "name:ru": "\u0410\u043d\u0433\u043b\u0438\u044f", "name:vi": "Anh", "name:pl": "Anglia", "id": -58447, "name:ca": "Anglaterra", "name:zh-simplified": "\u82f1\u683c\u5170", "alt_name:nds": "Ingland", "old_name:vi": "Anh Qu\u1ed1c", "name:tzl": "Anglatzara", "name:fr": "Angleterre", "name:fy": "Ingel\u00e2n", "name:zh": "\u82f1\u683c\u862d", "admin_level": "4", "name:nl": "Engeland", "name:lt": "Anglija", "name:zh-traditional": "\u82f1\u683c\u862d", "name:zh-classical": "\u82f1\u683c\u862d", "name:la": "Anglia", "name:sk": "Anglicko", "name:uk": "\u0410\u043d\u0433\u043b\u0456\u044f", "name:be": "\u0410\u043d\u0433\u043b\u0456\u044f", "name:hu": "Anglia", "osm_relation": true, "name:el": "\u0391\u03b3\u03b3\u03bb\u03af\u03b1", "kind": "state", "name:hsb": "Jend\u017aelska", "name": "England", "name:gd": "Sasainn", "maritime_boundary": "yes", "name:gv": "Sostyn", "name:es": "Inglaterra"}}, {"geometry": {"type": "LineString", "coordinates": [[1.40625, 51.99109], [1.4121, 51.99345], [1.43122, 52.00463], [1.44435, 52.02597], [1.45417, 52.03286], [1.45911, 52.04032], [1.46476, 52.04107], [1.47298, 52.04956], [1.47913, 52.05249]]}, "type": "Feature", "properties": {"admin_level": "8", "kind": "municipality", "name": "Suffolk Coastal", "osm_relation": true, "id": -53375}}]}, "roads": {"type": "FeatureCollection", "features": [{"geometry": {"type": "MultiLineString", "coordinates": [[[1.41619, 52.0217], [1.41473, 52.02463], [1.41293, 52.02468]], [[1.41874, 52.00915], [1.41738, 52.01335]]]}, "type": "Feature", "properties": {"kind": "major_road", "sort_key": 20, "landuse_kind": "residential", "source": "openstreetmap", "id": 4943078, "highway": "secondary"}}, {"geometry": {"type": "LineString", "coordinates": [[1.41738, 52.01335], [1.41619, 52.0217]]}, "type": "Feature", "properties": {"sort_key": 20, "source": "openstreetmap", "kind": "major_road", "id": 310434096, "highway": "secondary"}}, {"geometry": {"type": "MultiLineString", "coordinates": [[[1.40723, 52.03026], [1.40625, 52.03105]], [[1.41278, 52.025], [1.41123, 52.02729]]]}, "type": "Feature", "properties": {"kind": "major_road", "sort_key": 20, "source": "openstreetmap", "ref": "B1083", "id": 60257928, "highway": "secondary"}}, {"geometry": {"type": "LineString", "coordinates": [[1.40625, 51.86521], [1.43332, 51.85107], [1.53877, 51.85029], [1.62906, 51.83578]]}, "type": "Feature", "properties": {"kind": "ferry", "name": "Harwich-Hoek van Holland", "sort_key": 15, "route": "ferry", "source": "openstreetmap", "operator": "Stena Line", "id": 121724962}}, {"geometry": {"type": "LineString", "coordinates": [[1.41293, 52.02468], [1.41278, 52.025]]}, "type": "Feature", "properties": {"kind": "major_road", "sort_key": 20, "landuse_kind": "residential", "source": "openstreetmap", "ref": "B1083", "id": 60257928, "highway": "secondary"}}, {"geometry": {"type": "LineString", "coordinates": [[1.41123, 52.02729], [1.40723, 52.03026]]}, "type": "Feature", "properties": {"kind": "major_road", "sort_key": 20, "landuse_kind": "wood", "source": "openstreetmap", "ref": "B1083", "id": 60257928, "highway": "secondary"}}]}, "earth": {"type": "FeatureCollection", "features": [{"geometry": {"type": "MultiPolygon", "coordinates": [[[[1.44306, 52.02456], [1.43473, 52.00882], [1.43119, 52.00567], [1.41297, 51.99433], [1.40625, 51.99159], [1.40625, 52.05249], [1.47077, 52.05249], [1.4629, 52.04846], [1.45521, 52.03374], [1.44719, 52.02918], [1.44306, 52.02456]]], [[[1.47873, 52.05249], [1.47381, 52.05026], [1.46225, 52.04084], [1.46845, 52.04891], [1.47532, 52.05249], [1.47873, 52.05249]]]]}, "type": "Feature", "properties": {"land": "base", "id": 45628}}]}, "landuse": {"type": "FeatureCollection", "features": [{"geometry": {"type": "Polygon", "coordinates": [[[1.41293, 52.03772], [1.41628, 52.03831], [1.41298, 52.03965], [1.41531, 52.04113], [1.41732, 52.04202], [1.41843, 52.04074], [1.42025, 52.0415], [1.41902, 52.04248], [1.42721, 52.04479], [1.43151, 52.04302], [1.43219, 52.04408], [1.43706, 52.04414], [1.43898, 52.04339], [1.43803, 52.04173], [1.44147, 52.04092], [1.44357, 52.04325], [1.44794, 52.03828], [1.43952, 52.03501], [1.4439, 52.03], [1.43552, 52.01793], [1.43469, 52.01242], [1.43362, 52.01306], [1.42726, 52.01187], [1.43133, 52.01146], [1.43102, 52.00769], [1.42222, 52.00816], [1.42431, 52.01195], [1.41927, 52.01253], [1.41678, 52.01613], [1.41565, 52.01904], [1.41778, 52.0193], [1.41687, 52.02208], [1.42021, 52.02519], [1.41647, 52.02781], [1.41773, 52.03481], [1.42031, 52.03709], [1.41868, 52.03775], [1.41461, 52.03587], [1.41293, 52.03772]]]}, "type": "Feature", "properties": {"kind": "farmland", "area": 15081300, "sort_key": 3, "source": "openstreetmap.org", "min_zoom": 9.0, "id": 355624973}}, {"geometry": {"type": "Polygon", "coordinates": [[[1.46209, 52.04064], [1.46975, 52.04972], [1.47512, 52.05249], [1.47841, 52.05249], [1.47569, 52.0513], [1.46777, 52.04547], [1.46476, 52.04107], [1.46209, 52.04064]]]}, "type": "Feature", "properties": {"kind": "beach", "natural": "beach", "area": 8171750, "sort_key": 4, "source": "openstreetmap.org", "min_zoom": 9.0, "id": -911435, "osm_relation": true}}, {"geometry": {"type": "Polygon", "coordinates": [[[1.43472, 52.01003], [1.44047, 52.02414], [1.45626, 52.03668], [1.46016, 52.04351], [1.45543, 52.03354], [1.44488, 52.02663], [1.43477, 52.00915], [1.43472, 52.01003]]]}, "type": "Feature", "properties": {"kind": "beach", "natural": "beach", "area": 1223650, "sort_key": 4, "source": "openstreetmap.org", "min_zoom": 9.0, "id": 67331776}}, {"geometry": {"type": "Polygon", "coordinates": [[[1.42532, 52.05022], [1.43098, 52.05186], [1.43066, 52.05249], [1.43373, 52.05249], [1.43497, 52.05164], [1.43888, 52.05187], [1.43974, 52.05041], [1.43657, 52.0497], [1.43389, 52.05145], [1.4335, 52.04948], [1.43036, 52.04943], [1.42886, 52.04716], [1.42718, 52.04756], [1.42929, 52.04847], [1.42851, 52.04991], [1.42532, 52.05022]]]}, "type": "Feature", "properties": {"kind": "residential", "name": "Hollesley", "area": 713498, "sort_key": 1, "source": "openstreetmap.org", "min_zoom": 9.0, "id": 157468548}}, {"geometry": {"type": "Point", "coordinates": [1.4315, 52.05145]}, "type": "Feature", "properties": {"label_placement": "yes", "kind": "residential", "name": "Hollesley", "area": 713498, "sort_key": 1, "source": "openstreetmap.org", "min_zoom": 9.0, "id": 157468548}}, {"geometry": {"type": "Polygon", "coordinates": [[[1.40625, 51.9917], [1.41302, 51.99443], [1.43461, 52.00841], [1.42341, 51.99958], [1.41166, 51.9932], [1.40625, 51.99132], [1.40625, 51.9917]]]}, "type": "Feature", "properties": {"kind": "beach", "natural": "beach", "area": 625086, "sort_key": 4, "source": "openstreetmap.org", "min_zoom": 9.0, "id": 67331752}}, {"geometry": {"type": "Polygon", "coordinates": [[[1.44663, 52.0487], [1.45147, 52.05249], [1.45274, 52.05249], [1.45706, 52.05067], [1.45281, 52.04773], [1.44663, 52.0487]]]}, "type": "Feature", "properties": {"source": "openstreetmap.org", "kind": "prison", "min_zoom": 9.0, "id": 108211341, "area": 543784}}, {"geometry": {"type": "Polygon", "coordinates": [[[1.41669, 52.0434], [1.42165, 52.0467], [1.42724, 52.04478], [1.41902, 52.04248], [1.42025, 52.0415], [1.41843, 52.04074], [1.41669, 52.0434]]]}, "type": "Feature", "properties": {"kind": "residential", "area": 501161, "sort_key": 1, "source": "openstreetmap.org", "min_zoom": 9.0, "id": 355625690}}, {"geometry": {"type": "Polygon", "coordinates": [[[1.41183, 52.02494], [1.4145, 52.0251], [1.41607, 52.0271], [1.42021, 52.02519], [1.41678, 52.02092], [1.41432, 52.02433], [1.41183, 52.02494]]]}, "type": "Feature", "properties": {"kind": "residential", "area": 440463, "sort_key": 1, "source": "openstreetmap.org", "min_zoom": 9.0, "id": 157598597}}, {"geometry": {"type": "Polygon", "coordinates": [[[1.42223, 52.04895], [1.42683, 52.04852], [1.4334, 52.04528], [1.43104, 52.04508], [1.43036, 52.04345], [1.42869, 52.04544], [1.42478, 52.04515], [1.42289, 52.04622], [1.42461, 52.04777], [1.42223, 52.04895]]]}, "type": "Feature", "properties": {"kind": "wood", "natural": "wood", "area": 428635, "source": "openstreetmap.org", "min_zoom": 9.0, "id": 355625172}}, {"geometry": {"type": "Polygon", "coordinates": [[[1.41416, 52.01342], [1.41871, 52.01345], [1.41927, 52.00968], [1.42201, 52.00956], [1.42006, 52.00697], [1.41416, 52.01342]]]}, "type": "Feature", "properties": {"kind": "residential", "name": "Bawdsey", "area": 340324, "sort_key": 1, "source": "openstreetmap.org", "min_zoom": 9.0, "id": 157598598}}, {"geometry": {"type": "Point", "coordinates": [1.41796, 52.01062]}, "type": "Feature", "properties": {"label_placement": "yes", "kind": "residential", "name": "Bawdsey", "area": 340324, "sort_key": 1, "source": "openstreetmap.org", "min_zoom": 9.0, "id": 157598598}}, {"geometry": {"type": "Polygon", "coordinates": [[[1.43036, 52.04345], [1.43354, 52.04656], [1.43541, 52.04629], [1.43576, 52.0437], [1.43036, 52.04345]]]}, "type": "Feature", "properties": {"kind": "scrub", "natural": "scrub", "area": 177169, "source": "openstreetmap.org", "min_zoom": 9.0, "id": 355626070}}, {"geometry": {"type": "Polygon", "coordinates": [[[1.41077, 52.03983], [1.41372, 52.04076], [1.41454, 52.04183], [1.41293, 52.03971], [1.41421, 52.03824], [1.4127, 52.03763], [1.41077, 52.03983]]]}, "type": "Feature", "properties": {"kind": "residential", "area": 135024, "sort_key": 1, "source": "openstreetmap.org", "min_zoom": 9.0, "id": 264428236}}, {"geometry": {"type": "Polygon", "coordinates": [[[1.40625, 52.00607], [1.41252, 52.00147], [1.41008, 52.00192], [1.40625, 52.0052], [1.40625, 52.00607]]]}, "type": "Feature", "properties": {"kind": "wood", "natural": "wood", "area": 85830, "source": "openstreetmap.org", "min_zoom": 9.0614, "id": 28637901}}, {"geometry": {"type": "Polygon", "coordinates": [[[1.41559, 51.9997], [1.41702, 52.00065], [1.4215, 51.9997], [1.42017, 51.99907], [1.41559, 51.9997]]]}, "type": "Feature", "properties": {"kind": "forest", "area": 79994, "sort_key": 3, "source": "openstreetmap.org", "min_zoom": 9.1122, "id": 375219976}}, {"geometry": {"type": "Polygon", "coordinates": [[[1.40846, 51.99594], [1.41185, 51.99848], [1.41288, 51.99795], [1.41146, 51.99642], [1.40846, 51.99594]]]}, "type": "Feature", "properties": {"kind": "wood", "natural": "wood", "area": 62563, "source": "openstreetmap.org", "min_zoom": 9.28949, "id": 28989952}}, {"geometry": {"type": "Polygon", "coordinates": [[[1.42626, 52.02674], [1.42705, 52.02855], [1.42807, 52.02844], [1.42817, 52.02657], [1.42626, 52.02674]]]}, "type": "Feature", "properties": {"kind": "forest", "area": 59783, "sort_key": 3, "source": "openstreetmap.org", "min_zoom": 9.32228, "id": 153702728}}, {"geometry": {"type": "Polygon", "coordinates": [[[1.40723, 52.03026], [1.40988, 52.03099], [1.41122, 52.02957], [1.40836, 52.02995], [1.41123, 52.02729], [1.40723, 52.03026]]]}, "type": "Feature", "properties": {"kind": "wood", "natural": "wood", "name": "The Shrubbery", "area": 54331, "source": "openstreetmap.org", "min_zoom": 9.39125, "id": 28989925}}, {"geometry": {"type": "Point", "coordinates": [1.40917, 52.0291]}, "type": "Feature", "properties": {"label_placement": "yes", "kind": "wood", "natural": "wood", "name": "The Shrubbery", "area": 54331, "source": "openstreetmap.org", "min_zoom": 9.39125, "id": 28989925}}, {"geometry": {"type": "Polygon", "coordinates": [[[1.40625, 52.01996], [1.40831, 52.02033], [1.40625, 52.01919], [1.40625, 52.01996]]]}, "type": "Feature", "properties": {"kind": "forest", "area": 43834, "sort_key": 3, "source": "openstreetmap.org", "min_zoom": 9.54612, "id": 388766257}}, {"geometry": {"type": "Polygon", "coordinates": [[[1.43095, 52.04776], [1.4327, 52.04868], [1.43336, 52.04715], [1.43241, 52.04765], [1.43095, 52.04776]]]}, "type": "Feature", "properties": {"kind": "school", "area": 39370, "sort_key": 4, "source": "openstreetmap.org", "min_zoom": 9.6236, "id": 108215718}}, {"geometry": {"type": "Polygon", "coordinates": [[[1.4072, 51.99256], [1.41131, 51.99434], [1.40866, 51.99257], [1.4072, 51.99256]]]}, "type": "Feature", "properties": {"kind": "wood", "natural": "wood", "area": 36005, "source": "openstreetmap.org", "min_zoom": 9.68805, "id": 28989979}}, {"geometry": {"type": "Polygon", "coordinates": [[[1.40904, 52.02063], [1.40917, 52.0216], [1.41019, 52.02174], [1.41037, 52.02034], [1.40904, 52.02063]]]}, "type": "Feature", "properties": {"kind": "wood", "natural": "wood", "name": "Williams Wood", "area": 32383, "source": "openstreetmap.org", "min_zoom": 9.76453, "id": 28989932}}, {"geometry": {"type": "Point", "coordinates": [1.40973, 52.02121]}, "type": "Feature", "properties": {"label_placement": "yes", "kind": "wood", "natural": "wood", "name": "Williams Wood", "area": 32383, "source": "openstreetmap.org", "min_zoom": 9.76453, "id": 28989932}}, {"geometry": {"type": "Polygon", "coordinates": [[[1.40768, 52.02187], [1.40886, 52.02203], [1.40843, 52.0203], [1.40792, 52.02083], [1.40768, 52.02187]]]}, "type": "Feature", "properties": {"kind": "wood", "natural": "wood", "area": 25888, "source": "openstreetmap.org", "min_zoom": 9.926, "id": 28989935}}, {"geometry": {"type": "Polygon", "coordinates": [[[1.40879, 52.00797], [1.40883, 52.00962], [1.40943, 52.00963], [1.40965, 52.00812], [1.40879, 52.00797]]]}, "type": "Feature", "properties": {"kind": "wood", "natural": "wood", "area": 23392, "source": "openstreetmap.org", "min_zoom": 9.99912, "id": 28637882}}]}}